STARLINK-31065          
1 58627U 23203K   24284.76353321  .00021015  00000+0  81018-3 0  9997
2 58627  43.0014  91.3703 0001430 279.0660  81.0029 15.25939550 44858
STARLINK-31092          
1 58628U 23203L   24284.77963159  .00009788  00000+0  38326-3 0  9992
2 58628  43.0071  93.2023 0000810 306.8934  53.1843 15.25932926 44834
STARLINK-31091          
1 58629U 23203M   24284.77509559  .00005165  00000+0  20704-3 0  9999
2 58629  43.0012  93.1720 0000835 268.8906  91.1849 15.25930136 44835
STARLINK-31084          
1 58630U 23203N   24284.96920377  .00004589  00000+0  18498-3 0  9993
2 58630  43.0007  92.0480 0000665 263.2883  96.7892 15.25944219 46092
STARLINK-31064          
1 58631U 23203P   24284.76833547  .00010045  00000+0  39328-3 0  9993
2 58631  42.9993  93.1226 0000955 240.3372 119.7384 15.25913632 46004
STARLINK-31081          
1 58632U 23203Q   24284.76606056  .00030389  00000+0  11651-2 0  9998
2 58632  43.0025  93.1053 0002033 261.7878  98.2743 15.25957565 46067
STARLINK-31022          
1 58633U 23203R   24284.77058298  .00005516  00000+0  22055-3 0  9994
2 58633  43.0015  93.1402 0001548 263.4084  96.6591 15.25909503 46065
STARLINK-31025          
1 58634U 23203S   24284.75645472  .00004716  00000+0  19002-3 0  9998
2 58634  43.0018  89.5267 0001372 264.7511  95.3183 15.25909978 46105
STARLINK-31018          
1 58635U 23203T   24284.74358593  .00012076  00000+0  47052-3 0  9997
2 58635  42.9979  93.8233 0001469 267.2633  92.8050 15.25923397 46051
STARLINK-31008          
1 58636U 23203U   24284.74584733  .00003868  00000+0  15765-3 0  9990
2 58636  42.9965  93.8402 0000793 208.3892 151.6916 15.25902964 46059
STARLINK-31077          
1 58637U 23203V   24284.80680031  .00011666  00000+0  45513-3 0  9995
2 58637  42.9989  93.4327 0001198 221.1562 138.9198 15.25907202 46066
STARLINK-31078          
1 58638U 23203W   24285.19499475  .00026575  00000+0  10201-2 0  9999
2 58638  43.0010  91.1840 0001970 238.9651 121.1007 15.25974267 46138
STARLINK-31070          
1 58639U 23203X   24285.19272433  .00013991  00000+0  54291-3 0  9999
2 58639  43.0041  91.1725 0002823 278.9936  81.0596 15.25955258 46139
STARLINK-31090          
1 58640U 23203Y   24284.79372807  .00003535  00000+0  14492-3 0  9994
2 58640  43.0019  84.6947 0001109 269.5284  90.5440 15.25911152 46179
STARLINK-31113          
1 58668U 23211B   24284.84656785  .00007098  00000+0  28073-3 0  9997
2 58668  43.0030 109.6111 0002064 268.8425  91.2190 15.25933171 45043
STARLINK-31128          
1 58669U 23211C   24285.22122407  .00009735  00000+0  38123-3 0  9997
2 58669  43.0040 107.2390 0000725 285.9630  74.1141 15.25933918 44884
STARLINK-31083          
1 58670U 23211D   24284.78563422  .00002694  00000+0  11271-3 0  9997
2 58670  43.0027 110.0211 0001268 264.2465  95.8241 15.25932431 43759
STARLINK-30828          
1 58671U 23211E   24285.20087271  .00020837  00000+0  80306-3 0  9993
2 58671  43.0019 107.0935 0001008 292.7527  67.3218 15.25954794 44628
STARLINK-31104          
1 58672U 23211F   24284.98426198  .00017007  00000+0  65769-3 0  9994
2 58672  43.0013 108.9327 0001690 255.4817 104.5847 15.25950956 45060
STARLINK-31131          
1 58673U 23211G   24284.80862278  .00009761  00000+0  38222-3 0  9991
2 58673  43.0007 100.5128 0001584 278.8595  81.2077 15.25933012 45144
STARLINK-31124          
1 58674U 23211H   24284.84432438  .00002374  00000+0  10061-3 0  9991
2 58674  43.0020 109.5931 0001303 255.0313 105.0394 15.25900876 43760
STARLINK-31126          
1 58675U 23211J   24284.92109525  .00015664  00000+0  60710-3 0  9991
2 58675  43.0014 109.3095 0001571 278.9594  81.1079 15.25925364 44949
STARLINK-31066          
1 58676U 23211K   24285.05430519  .00002488  00000+0  19917-3 0  9990
2 58676  43.0010 151.0673 0001136 251.8270 108.2449 15.02533532 44578
STARLINK-31058          
1 58677U 23211L   24284.84206101  .00013976  00000+0  54295-3 0  9997
2 58677  43.0024 109.5765 0001764 277.8188  82.2463 15.25919185 44942
STARLINK-31125          
1 58678U 23211M   24285.19862110  .00043227  00000+0  16492-2 0  9993
2 58678  43.0004 107.0800 0001901 272.2986  87.7647 15.25979282 44995
STARLINK-31110          
1 58679U 23211N   24284.83525657  .00009923  00000+0  38832-3 0  9994
2 58679  43.0017 109.5124 0002306 268.8734  91.1853 15.25940769 45030
STARLINK-31112          
1 58680U 23211P   24285.22348556  .00015912  00000+0  61605-3 0  9990
2 58680  43.0077 107.2569 0003013 265.3073  94.7434 15.25950096 45005
STARLINK-31147          
1 58681U 23211Q   24285.22573240  .00008071  00000+0  31772-3 0  9991
2 58681  43.0004 107.2800 0000879 275.7265  84.3486 15.25943772 45093
STARLINK-31144          
1 58682U 23211R   24284.80358605 -.00002784  00000+0 -96569-4 0  9994
2 58682  42.9998 109.2769 0001090 273.7546  86.3181 15.25935630 43766
STARLINK-31095          
1 58683U 23211S   24284.82622241  .00003456  00000+0  14194-3 0  9995
2 58683  43.0032 109.4359 0001202 283.2033  76.8684 15.25897663 45034
STARLINK-31107          
1 58684U 23211T   24285.20991954  .00051568  00000+0  19619-2 0  9992
2 58684  43.0010 107.1596 0001323 269.7029  90.3670 15.26003532 44992
STARLINK-31121          
1 58685U 23211U   24285.20312318  .00016188  00000+0  62653-3 0  9990
2 58685  43.0040 107.1112 0001153 275.2195  84.8524 15.25953012 44999
STARLINK-31137          
1 58686U 23211V   24285.19407329  .00010600  00000+0  41422-3 0  9990
2 58686  42.9972 107.0537 0000692 217.8883 142.1919 15.25928913 45095
STARLINK-31139          
1 58688U 23211X   24285.20765448  .00067113  00000+0  25453-2 0  9999
2 58688  43.0012 107.1428 0001494 273.9870  86.0811 15.25999105 45092
STARLINK-31106          
1 58689U 23211Y   24285.21443224  .00013350  00000+0  51842-3 0  9992
2 58689  43.0027 107.1897 0001486 288.4863  71.5826 15.25963189 44999
STARLINK-11072 [DTC]    
1 58705U 24002A   24284.76041475  .00008637  00000+0  70747-4 0  9999
2 58705  53.1577 298.9086 0001902  74.2746 285.8482 15.71487296 45476
STARLINK-11075 [DTC]    
1 58706U 24002B   24285.21811457  .00013658  00000+0  12582-3 0  9997
2 58706  53.1584 298.2706 0001909  92.0810 268.0426 15.68004524 45470
STARLINK-11077 [DTC]    
1 58707U 24002C   24285.22963498  .00005721  00000+0  48444-4 0  9991
2 58707  53.1585 296.8551 0001315  74.8681 285.2483 15.71484916 45496
STARLINK-11079 [DTC]    
1 58708U 24002D   24285.22364612  .00018191  00000+0  14365-3 0  9994
2 58708  53.1570 296.8269 0001152  67.1260 292.9880 15.71498498 45490
STARLINK-11076 [DTC]    
1 58709U 24002E   24285.20000311  .00009576  00000+0  77894-4 0  9990
2 58709  53.1589 296.6743 0001074  96.6000 263.5141 15.71496459 45385
STARLINK-11078 [DTC]    
1 58710U 24002F   24285.20251033 -.00022488  00000+0 -16883-3 0  9990
2 58710  53.1573 296.6911 0001326  45.8956 314.2171 15.71391225 45497
STARLINK-31031          
1 58711U 24002G   24285.07576847  .00005398  00000+0  39595-3 0  9993
2 58711  53.1603  56.3377 0001253  89.0112 271.1021 15.04942361 43708
STARLINK-31029          
1 58712U 24002H   24284.65380259  .00005166  00000+0  37989-3 0  9995
2 58712  53.1599  58.6733 0001388  94.1725 265.9423 15.04937162 43788
STARLINK-30973          
1 58713U 24002J   24284.65058334  .00005047  00000+0  37173-3 0  9995
2 58713  53.1609  58.6523 0001194  91.2454 268.8672 15.04921689 43785
STARLINK-31100          
1 58714U 24002K   24284.64737182  .00005570  00000+0  40829-3 0  9993
2 58714  53.1606  58.6324 0001040  84.0885 276.0223 15.04915256 43786
STARLINK-31102          
1 58715U 24002L   24284.64415856  .00008546  00000+0  61560-3 0  9996
2 58715  53.1591  58.6149 0001339  73.7986 286.3150 15.04926625 43788
STARLINK-31098          
1 58716U 24002M   24284.64093300  .00000579  00000+0  59846-4 0  9996
2 58716  53.1612  58.5951 0001229  98.8551 261.2577 15.04919054 43757
STARLINK-31093          
1 58717U 24002N   24285.07898325  .00003409  00000+0  25730-3 0  9994
2 58717  53.1609  56.3687 0001067  94.8768 265.2344 15.04937298 43703
STARLINK-31097          
1 58718U 24002P   24284.70411910  .00002305  00000+0  18025-3 0  9998
2 58718  53.1603  58.2759 0001148 100.3197 259.7922 15.04936111 43790
STARLINK-31051          
1 58719U 24002Q   24284.70090815  .00007959  00000+0  57459-3 0  9990
2 58719  53.1591  58.2541 0001143  84.4038 275.7082 15.04935038 43799
STARLINK-31027          
1 58720U 24002R   24285.09613875  .00002535  00000+0  19623-3 0  9998
2 58720  53.1605  56.4571 0001221  79.7976 280.3152 15.04951205 43700
STARLINK-30972          
1 58721U 24002S   24284.69446637  .00007171  00000+0  51966-3 0  9991
2 58721  53.1598  58.2169 0001274  95.0672 265.0463 15.04935368 43793
STARLINK-31040          
1 58722U 24002T   24285.08863186  .00003397  00000+0  25642-3 0  9996
2 58722  53.1617  56.4093 0001464 117.8288 242.2850 15.04945207 43823
STARLINK-31033          
1 58723U 24002U   24285.07254755  .00048848  00000+0  34037-2 0  9999
2 58723  53.1591  56.3079 0001311  76.6384 283.4752 15.04973827 43690
STARLINK-30893          
1 58724U 24002V   24285.08541844  .00000402  00000+0  47449-4 0  9996
2 58724  53.1607  56.4013 0001135  97.9029 262.2089 15.04928788 43700
STARLINK-30856          
1 58725U 24002W   24285.08218286  .00002989  00000+0  22793-3 0  9994
2 58725  53.1609  56.3736 0001061  95.1490 264.9621 15.04950047 43708
STARLINK-31155          
1 58728U 24005A   24285.00466329  .00004306  00000+0  33363-3 0  9995
2 58728  43.0052 137.9412 0000816 276.6474  83.4276 15.02533671 43015
STARLINK-31115          
1 58729U 24005B   24285.00133464  .00019596  00000+0  14635-2 0  9994
2 58729  43.0057 137.8999 0000312 248.6901 111.3908 15.02489074 43015
STARLINK-31150          
1 58730U 24005C   24285.02878136 -.00006542  00000+0 -14924-3 0  9991
2 58730  43.0053  36.4414 0003473 247.5493 112.4996 15.40736235 44188
